FENGYUN 1C DEB          
1 30924U 99025AZN 17345.60846604  .00001604  00000-0  72942-3 0  9995
2 30924  99.0016  19.6332 0055524 145.4307 332.0652 14.22409886553406
